start=new Date('2023-02-19T00:00:00.000Z').valueOf();
sats=[{"OBJECT_ID":"2020-012BJ","NORAD_CAT_ID":"45234","TLE_LINE2":"2 45234  53.0538  12.3046 0001476  65.7938 294.3205 15.06370826165865","LAUNCH_DATE":"2020-02-17","SITE":"AFETR","COUNTRY_CODE":"US","SEMIMAJOR_AXIS":"6925.438","CLASSIFICATION_TYPE":"U","REV_AT_EPOCH":"16586","CENTER_NAME":"EARTH","MEAN_ELEMENT_THEORY":"SGP4","DECAY_DATE":null,"EPOCH":"2023-02-18T15:11:11.310720","ECCENTRICITY":"0.00014760","BSTAR":"-0.00022726000000","GP_ID":"225941999","MEAN_ANOMALY":"294.3205","RA_OF_ASC_NODE":"12.3046","EPHEMERIS_TYPE":"0","PERIOD":"95.594","ELEMENT_SET_NO":"999","TLE_LINE1":"1 45234U 20012BJ  23049.63276980 -.00003662  00000-0 -22726-3 0  9993","OBJECT_TYPE":"PAYLOAD","PERIAPSIS":"546.281","MEAN_MOTION":"15.06370826","MEAN_MOTION_DOT":"-0.00003662","APOAPSIS":"548.325","MEAN_MOTION_DDOT":"0.0000000000000","OBJECT_NAME":"STARLINK-1243","ARG_OF_PERICENTER":"65.7938","REF_FRAME":"TEME","TIME_SYSTEM":"UTC","FILE":"3807745","RCS_SIZE":"LARGE","INCLINATION":"53.0538"},{"SEMIMAJOR_AXIS":"6925.343","SITE":"AFETR","COUNTRY_CODE":"US","TLE_LINE2":"2 45235  53.0539  12.3687 0001459  98.6797 261.4357 15.06401773165866","LAUNCH_DATE":"2020-02-17","NORAD_CAT_ID":"45235","OBJECT_ID":"2020-012BK","MEAN_ANOMALY":"261.4357","GP_ID":"225941997","BSTAR":"0.00053591000000","DECAY_DATE":null,"ECCENTRICITY":"0.00014590","EPOCH":"2023-02-18T14:49:57.636480","MEAN_ELEMENT_THEORY":"SGP4","CLASSIFICATION_TYPE":"U","REV_AT_EPOCH":"16586","CENTER_NAME":"EARTH","MEAN_MOTION":"15.06401773","PERIAPSIS":"546.198","MEAN_MOTION_DOT":"0.00007710","TLE_LINE1":"1 45235U 20012BK  23049.61802820  .00007710  00000-0  53591-3 0  9990","ELEMENT_SET_NO":"999","OBJECT_TYPE":"PAYLOAD","EPHEMERIS_TYPE":"0","PERIOD":"95.592","RA_OF_ASC_NODE":"12.3687","INCLINATION":"53.0539","RCS_SIZE":"LARGE","FILE":"3807745","REF_FRAME":"TEME","TIME_SYSTEM":"UTC","MEAN_MOTION_DDOT":"0.0000000000000","OBJECT_NAME":"STARLINK-1246","ARG_OF_PERICENTER":"98.6797","APOAPSIS":"548.219"},{"REV_AT_EPOCH":"16642","CENTER_NAME":"EARTH","CLASSIFICATION_TYPE":"U","MEAN_ELEMENT_THEORY":"SGP4","EPOCH":"2023-02-18T19:10:04.130688","ECCENTRICITY":"0.00011490","DECAY_DATE":null,"BSTAR":"0.00028780000000","GP_ID":"225942003","MEAN_ANOMALY":"244.8006","OBJECT_ID":"2020-012BL","NORAD_CAT_ID":"45236","TLE_LINE2":"2 45236  53.0545 331.5648 0001149 115.3102 244.8006 15.06380887166421","LAUNCH_DATE":"2020-02-17","COUNTRY_CODE":"US","SITE":"AFETR","SEMIMAJOR_AXIS":"6925.407","APOAPSIS":"548.068","OBJECT_NAME":"STARLINK-1247","MEAN_MOTION_DDOT":"0.0000000000000","ARG_OF_PERICENTER":"115.3102","REF_FRAME":"TEME","TIME_SYSTEM":"UTC","FILE":"3807745","RCS_SIZE":"LARGE","INCLINATION":"53.0545","RA_OF_ASC_NODE":"331.5648","PERIOD":"95.593","EPHEMERIS_TYPE":"0","OBJECT_TYPE":"PAYLOAD","TLE_LINE1":"1 45236U 20012BL  23049.79865892  .00004006  00000-0  28780-3 0  9995","ELEMENT_SET_NO":"999","MEAN_MOTION_DOT":"0.00004006","PERIAPSIS":"546.476","MEAN_MOTION":"15.06380887"},{"REV_AT_EPOCH":"16638","CENTER_NAME":"EARTH","CLASSIFICATION_TYPE":"U","MEAN_ELEMENT_THEORY":"SGP4","ECCENTRICITY":"0.00029610","EPOCH":"2023-02-18T13:19:49.688544","DECAY_DATE":null,"GP_ID":"225942042","BSTAR":"-0.00059567000000","MEAN_ANOMALY":"1.0726","TLE_LINE2":"2 45237  53.0576 332.6487 0002961 359.0256   1.0726 15.06248762166381","NORAD_CAT_ID":"45237","LAUNCH_DATE":"2020-02-17","OBJECT_ID":"2020-012BM","SEMIMAJOR_AXIS":"6925.812","SITE":"AFETR","COUNTRY_CODE":"US","APOAPSIS":"549.728","TIME_SYSTEM":"UTC","REF_FRAME":"TEME","MEAN_MOTION_DDOT":"0.0000000000000","ARG_OF_PERICENTER":"359.0256","OBJECT_NAME":"STARLINK-1270","FILE":"3807747","INCLINATION":"53.0576","RCS_SIZE":"LARGE","PERIOD":"95.602","EPHEMERIS_TYPE":"0","RA_OF_ASC_NODE":"332.6487","OBJECT_TYPE":"PAYLOAD","ELEMENT_SET_NO":"999","TLE_LINE1":"1 45237U 20012BM  23049.55543621 -.00009108  00000-0 -59567-3 0  9990","MEAN_MOTION_DOT":"-0.00009108","PERIAPSIS":"545.626","MEAN_MOTION":"15.06248762"},{"GP_ID":"225921121","MEAN_ANOMALY":"289.9600","BSTAR":"0.00198620000000","ECCENTRICITY":"0.00011460","EPOCH":"2023-02-18T12:19:59.110176","DECAY_DATE":null,"MEAN_ELEMENT_THEORY":"SGP4","REV_AT_EPOCH":"16205","CENTER_NAME":"EARTH","CLASSIFICATION_TYPE":"U","SEMIMAJOR_AXIS":"6925.238","COUNTRY_CODE":"US","SITE":"AFETR","TLE_LINE2":"2 45360  53.0522 102.8358 0001146  70.1512 289.9600 15.06436158162059","LAUNCH_DATE":"2020-03-18","NORAD_CAT_ID":"45360","OBJECT_ID":"2020-019A","INCLINATION":"53.0522","RCS_SIZE":"LARGE","FILE":"3807124","TIME_SYSTEM":"UTC","REF_FRAME":"TEME","MEAN_MOTION_DDOT":"0.0000000000000","OBJECT_NAME":"STARLINK-1279","ARG_OF_PERICENTER":"70.1512","APOAPSIS":"547.896","MEAN_MOTION_DOT":"0.00029456","PERIAPSIS":"546.309","MEAN_MOTION":"15.06436158","OBJECT_TYPE":"PAYLOAD","ELEMENT_SET_NO":"999","TLE_LINE1":"1 45360U 20019A   23049.51387859  .00029456  00000-0  19862-2 0  9998","PERIOD":"95.590","EPHEMERIS_TYPE":"0","RA_OF_ASC_NODE":"102.8358"},{"REV_AT_EPOCH":"16198","CENTER_NAME":"EARTH","CLASSIFICATION_TYPE":"U","MEAN_ELEMENT_THEORY":"SGP4","EPOCH":"2023-02-18T21:35:58.411104","ECCENTRICITY":"0.00012060","DECAY_DATE":null,"MEAN_ANOMALY":"285.3435","GP_ID":"225954557","BSTAR":"0.00147810000000","TLE_LINE2":"2 45361  53.0524 111.1047 0001206  74.7687 285.3435 15.06431738161986","LAUNCH_DATE":"2020-03-18","NORAD_CAT_ID":"45361","OBJECT_ID":"2020-019B","SEMIMAJOR_AXIS":"6925.251","SITE":"AFETR","COUNTRY_CODE":"US","APOAPSIS":"547.951","TIME_SYSTEM":"UTC","REF_FRAME":"TEME","ARG_OF_PERICENTER":"74.7687","MEAN_MOTION_DDOT":"0.0000000000000","OBJECT_NAME":"STARLINK-1301","FILE":"3808344","INCLINATION":"53.0524","RCS_SIZE":"LARGE","PERIOD":"95.590","EPHEMERIS_TYPE":"0","RA_OF_ASC_NODE":"111.1047","OBJECT_TYPE":"PAYLOAD","TLE_LINE1":"1 45361U 20019B   23049.89998161  .00021822  00000-0  14781-2 0  9998","ELEMENT_SET_NO":"999","MEAN_MOTION_DOT":"0.00021822","MEAN_MOTION":"15.06431738","PERIAPSIS":"546.281"},{"FILE":"3808344","INCLINATION":"53.0520","RCS_SIZE":"LARGE","APOAPSIS":"548.105","TIME_SYSTEM":"UTC","REF_FRAME":"TEME","MEAN_MOTION_DDOT":"0.0000000000000","OBJECT_NAME":"STARLINK-1306","ARG_OF_PERICENTER":"106.3768","PERIAPSIS":"546.357","MEAN_MOTION":"15.06394393","MEAN_MOTION_DOT":"0.00015280","EPHEMERIS_TYPE":"0","PERIOD":"95.592","RA_OF_ASC_NODE":"131.7885","TLE_LINE1":"1 45362U 20019C   23049.74703048  .00015280  00000-0  10426-2 0  9994","ELEMENT_SET_NO":"999","OBJECT_TYPE":"PAYLOAD","DECAY_DATE":null,"EPOCH":"2023-02-18T17:55:43.433472","ECCENTRICITY":"0.00012620","MEAN_ANOMALY":"253.7359","GP_ID":"225954062","BSTAR":"0.00104260000000","CLASSIFICATION_TYPE":"U","CENTER_NAME":"EARTH","REV_AT_EPOCH":"16168","MEAN_ELEMENT_THEORY":"SGP4","SEMIMAJOR_AXIS":"6925.366","SITE":"AFETR","COUNTRY_CODE":"US","LAUNCH_DATE":"2020-03-18","TLE_LINE2":"2 45362  53.0520 131.7885 0001262 106.3768 253.7359 15.06394393161681","NORAD_CAT_ID":"45362","OBJECT_ID":"2020-019C"},{"SEMIMAJOR_AXIS":"6913.552","COUNTRY_CODE":"US","SITE":"AFETR","TLE_LINE2":"2 45364  53.0530 101.7228 0000740 356.3326   3.7659 15.10257238162070","LAUNCH_DATE":"2020-03-18","NORAD_CAT_ID":"45364","OBJECT_ID":"2020-019E","GP_ID":"225920370","MEAN_ANOMALY":"3.7659","BSTAR":"0.00186780000000","DECAY_DATE":null,"ECCENTRICITY":"0.00007400","EPOCH":"2023-02-18T13:17:42.901728","MEAN_ELEMENT_THEORY":"SGP4","CLASSIFICATION_TYPE":"U","CENTER_NAME":"EARTH","REV_AT_EPOCH":"16207","PERIAPSIS":"534.905","MEAN_MOTION":"15.10257238","MEAN_MOTION_DOT":"0.00030752","ELEMENT_SET_NO":"999","TLE_LINE1":"1 45364U 20019E   23049.55396877  .00030752  00000-0  18678-2 0  9991","OBJECT_TYPE":"PAYLOAD","EPHEMERIS_TYPE":"0","PERIOD":"95.348","RA_OF_ASC_NODE":"101.7228","INCLINATION":"53.0530","RCS_SIZE":"LARGE","FILE":"3807124","TIME_SYSTEM":"UTC","REF_FRAME":"TEME","MEAN_MOTION_DDOT":"0.0000000000000","ARG_OF_PERICENTER":"356.3326","OBJECT_NAME":"STARLINK-1313","APOAPSIS":"535.928"},{"SEMIMAJOR_AXIS":"6903.044","SITE":"AFETR","COUNTRY_CODE":"US","LAUNCH_DATE":"2020-03-18","TLE_LINE2":"2 45365  52.9965 109.4463 0003175  33.4414 326.6777 15.13706948161902","NORAD_CAT_ID":"45365","OBJECT_ID":"2020-019F","BSTAR":"0.00232380000000","GP_ID":"225920629","MEAN_ANOMALY":"326.6777","EPOCH":"2023-02-18T12:49:36.868800","ECCENTRICITY":"0.00031750","DECAY_DATE":null,"MEAN_ELEMENT_THEORY":"SGP4","CENTER_NAME":"EARTH","REV_AT_EPOCH":"16190","CLASSIFICATION_TYPE":"U","MEAN_MOTION_DOT":"0.00042284","PERIAPSIS":"522.717","MEAN_MOTION":"15.13706948","OBJECT_TYPE":"PAYLOAD","ELEMENT_SET_NO":"999","TLE_LINE1":"1 45365U 20019F   23049.53445450  .00042284  00000-0  23238-2 0  9993","PERIOD":"95.131","EPHEMERIS_TYPE":"0","RA_OF_ASC_NODE":"109.4463","INCLINATION":"52.9965","RCS_SIZE":"LARGE","FILE":"3807124","TIME_SYSTEM":"UTC","REF_FRAME":"TEME","ARG_OF_PERICENTER":"33.4414","MEAN_MOTION_DDOT":"0.0000000000000","OBJECT_NAME":"STARLINK-1317","APOAPSIS":"527.101"},{"APOAPSIS":"547.909","REF_FRAME":"TEME","TIME_SYSTEM":"UTC","MEAN_MOTION_DDOT":"0.0000000000000","OBJECT_NAME":"STARLINK-1262","ARG_OF_PERICENTER":"113.6276","FILE":"3807124","INCLINATION":"53.0536","RCS_SIZE":"LARGE","PERIOD":"95.593","EPHEMERIS_TYPE":"0","RA_OF_ASC_NODE":"132.4583","OBJECT_TYPE":"PAYLOAD","ELEMENT_SET_NO":"999","TLE_LINE1":"1 45366U 20019G   23049.59959237  .00019565  00000-0  13292-2 0  9998","MEAN_MOTION_DOT":"0.00019565","PERIAPSIS":"546.605","MEAN_MOTION":"15.06385870","REV_AT_EPOCH":"16166","CENTER_NAME":"EARTH","CLASSIFICATION_TYPE":"U","MEAN_ELEMENT_THEORY":"SGP4","ECCENTRICITY":"0.00009410","EPOCH":"2023-02-18T14:23:24.780768","DECAY_DATE":null,"GP_ID":"225920866","BSTAR":"0.00132920000000","MEAN_ANOMALY":"246.4812","TLE_LINE2":"2 45366  53.0536 132.4583 0000941 113.6276 246.4812 15.06385870161664","NORAD_CAT_ID":"45366","LAUNCH_DATE":"2020-03-18","OBJECT_ID":"2020-019G","SEMIMAJOR_AXIS":"6925.392","SITE":"AFETR","COUNTRY_CODE":"US"}];
